HST                     
1 20580U 90037B   24069.31870672  .00006696  00000+0  32735-3 0  9998
2 20580  28.4679 293.4724 0002993  30.3863 329.6903 15.16236594661850
